satname,norad_id,inclination_deg,eccentricity,mean_motion_rev_per_day,perigee_km,apogee_km,l1,l2
STARLINK-1540,46051,53.1579,0.0001223,15.3020459,474.36320125895054,476.0395278229171,1 46051U 20055AA  26126.00002315  .00021467  00000+0  73472-3 0  9991,2 46051  53.1579 207.6419 0001223  88.6313 104.6241 15.30204590  5613
STARLINK-1541,46052,53.1591,0.0001638,15.73078301,349.0030792453945,351.2072513787507,1 46052U 20055AB  26126.00002315  .00579405  00000+0  38745-2 0  9995,2 46052  53.1591 202.7728 0001638  66.2336 135.8648 15.73078301  5785
STARLINK-1543,46053,53.1597,0.0001608,15.31711213,469.605276013971,471.8078641061011,1 46053U 20055AC  26125.62007312  .00007758  00000+0  26141-3 0  9990,2 46053  53.1597 209.3202 0001608  58.7394 301.3765 15.31711213317796
STARLINK-1548,46054,53.1596,0.0001351,15.31703703,469.8036750068113,471.65423858833856,1 46054U 20055AD  26125.63406137  .00002379  00000+0  88398-4 0  9997,2 46054  53.1596 209.3274 0001351  89.3650 270.7506 15.31703703317792
STARLINK-1554,46055,53.1589,0.0001534,15.31705272,469.67366439274883,471.7748950333653,1 46055U 20055AE  26125.48491468  .00005034  00000+0  17386-3 0  9991,2 46055  53.1589 209.9693 0001534  86.1816 273.9361 15.31705272317773
STARLINK-1564,46058,53.1592,0.0001294,15.30195019,474.3431161455637,476.11676751010873,1 46058U 20055AH  26125.50681020  .00003060  00000+0  11540-3 0  9995,2 46058  53.1592 210.4588 0001294  82.0554 278.0594 15.30195019317761
STARLINK-1570,46059,53.1587,0.0001277,15.31697394,469.8731610027453,471.6223661713657,1 46059U 20055AJ  26125.51286264  .00002763  00000+0  10078-3 0  9992,2 46059  53.1587 209.7228 0001277  81.0695 279.0451 15.31697394317738
STARLINK-1572,46060,53.1589,0.000134,15.3019506,474.3114682547639,476.1481705623655,1 46060U 20055AK  26125.48781115  .00003806  00000+0  14058-3 0  9996,2 46060  53.1589 210.2948 0001340  86.7536 273.3619 15.30195060317730
STARLINK-1573,46061,53.1586,0.0001139,15.31712429,469.922862404168,471.4830281437007,1 46061U 20055AL  26125.69462321  .00003742  00000+0  13223-3 0  9997,2 46061  53.1586 208.8429 0001139  75.9935 284.1193 15.31712429317804
STARLINK-1577,46063,53.1577,0.0001069,15.31704085,469.99567443122487,471.45996172933064,1 46063U 20055AN  26125.52683644  .00004793  00000+0  16609-3 0  9992,2 46063  53.1577 209.6172 0001069  86.1548 273.9576 15.31704085317772
STARLINK-1583,46064,53.1565,0.0001639,15.30207227,474.07023011745423,476.31675185239965,1 46064U 20055AP  26125.51728078  .00017750  00000+0  60985-3 0  9996,2 46064  53.1565 209.8992 0001639  54.0606 306.0547 15.30207227317764
STARLINK-1536,46070,53.1591,0.0001239,15.31710275,469.86079409177,471.55793822130363,1 46070U 20055AV  26125.67267655  .00002859  00000+0  10384-3 0  9991,2 46070  53.1591 196.8253 0001239  89.3264 270.7879 15.31710275317962
STARLINK-1542,46073,53.1378,3.95e-05,15.269074,484.79274524200173,485.3349381084945,1 46073U 20055AY  26126.00002315  .00101009  00000+0  37339-2 0  9997,2 46073  53.1378 198.1274 0000395 134.8709 171.9656 15.26907400  5790
STARLINK-1549,46074,53.0516,0.0002719,15.27132975,482.52205567418514,486.2538967562514,1 46074U 20055AZ  26125.57816973  .00028782  00000+0  10762-2 0  9999,2 46074  53.0516 196.9326 0002719   5.3524 354.7503 15.27132975317939
STARLINK-1551,46075,53.1599,0.0001319,15.30198387,474.3159277776058,476.12384332401325,1 46075U 20055BA  26125.62837698  .00004296  00000+0  15711-3 0  9997,2 46075  53.1599 196.5869 0001319  86.0778 274.0374 15.30198387317957
STARLINK-1552,46076,53.1589,0.000147,15.30197953,474.2137377464969,476.2286250518273,1 46076U 20055BB  26125.71053259  .00004438  00000+0  16188-3 0  9998,2 46076  53.1589 196.1201 0001470  83.2389 276.8779 15.30197953317955
STARLINK-1559,46077,53.0229,0.0002749,15.35337893,458.0372626595399,461.7968247727749,1 46077U 20055BC  26125.49418107  .00041259  00000+0  11894-2 0  9991,2 46077  53.0229 168.3415 0002749 353.2769   6.8195 15.35337893318291
STARLINK-1566,46079,53.1602,0.0001161,15.31705275,469.92911797672696,471.51942356380005,1 46079U 20055BE  26125.58903340  .00000626  00000+0  31944-4 0  9994,2 46079  53.1602 196.5863 0001161  79.6720 280.4412 15.31705275317955
STARLINK-1568,46080,53.0578,0.0004631,15.51350158,409.63819006788253,415.9279402322245,1 46080U 20055BF  26125.27767458  .00063003  00000+0  10525-2 0  9998,2 46080  53.0578 121.9708 0004631 355.1519   4.9444 15.51350158318965
STARLINK-1578,46082,53.1593,0.0001411,15.31654694,469.90865778244734,471.8414489839124,1 46082U 20055BH  26126.00002315  .00047031  00000+0  15199-2 0  9991,2 46082  53.1593 195.1913 0001411  53.3683  29.9361 15.31654694  5775
STARLINK-1579,46083,53.1595,0.0001236,15.3169787,469.89982267077085,471.5928666335685,1 46083U 20055BJ  26126.00002315  .00040724  00000+0  13170-2 0  9991,2 46083  53.1595 194.7251 0001236  75.6916  83.3469 15.31697870  5742
STARLINK-1593,46119,53.0203,0.0010133,16.39515796,160.45859328348888,173.72315209027693,1 46119U 20057C   26125.99433002  .09196762  12338-4  69401-3 0  9995,2 46119  53.0203 338.4355 0010133 265.9717  94.0170 16.39515796317095
STARLINK-1622,46128,53.0188,0.0002725,15.75584358,341.1373354599864,344.8003381410417,1 46128U 20057M   26126.00002315  .00055503  00000+0  35834-3 0  9996,2 46128  53.0188 300.8056 0002725 324.3993  24.3594 15.75584358  5945
STARLINK-1623,46129,53.0461,7.73e-05,15.68533116,362.5755501400572,363.617744861961,1 46129U 20057N   26125.79769978  .00084831  00000+0  73246-3 0  9992,2 46129  53.0461 337.9434 0000773 192.2286 167.8711 15.68533116315833
STARLINK-1624,46130,53.0328,0.0007551,15.93023741,288.7887168781699,298.8647164831,1 46130U 20057P   26126.00002315  .00409313  76108-4  11481-2 0  9999,2 46130  53.0328 305.4460 0007551 254.7866 295.2501 15.93023741  6011
STARLINK-1596,46141,53.0384,0.0002421,15.54171676,402.9194430465641,406.20362567690154,1 46141U 20057AA  26125.76783955  .00102425  00000+0  15340-2 0  9994,2 46141  53.0384 317.0706 0002421 283.7402  76.3338 15.54171676316126
STARLINK-1597,46142,53.0456,0.0003038,15.68250124,361.859363997477,365.95583029470254,1 46142U 20057AB  26125.70451280  .00093622  00000+0  81627-3 0  9992,2 46142  53.0456  18.0811 0003038  57.3901 302.7408 15.68250124315254
STARLINK-1606,46144,53.0415,0.0003577,15.78179912,333.1960668610973,337.99907257227187,1 46144U 20057AD  26126.00002315  .00211826  00000+0  11868-2 0  9996,2 46144  53.0415 332.6853 0003577 196.5613  87.7631 15.78179912  5997
